STARLINK-37400          
1 68777U 26086M   26117.81236274 -.00326289  38472-4 -84976-3 0  9994
2 68777  97.2778 153.2630 0000805 201.8039 158.3203 15.94905941  1227
