{
  "norad_id": 68777,
  "name": "STARLINK-37400",
  "history": [
    {
      "epoch": "2026-04-27T19:29:48.140736Z",
      "apogee_km": 289.11315423731776,
      "perigee_km": 288.03981336642573,
      "latitude_deg": 4.1851466508047134e-05,
      "longitude_deg": 5.01560519707136,
      "height_km": 292.2702247219562,
      "semi_major_axis_km": 6666.713483801872,
      "eccentricity": 8.05e-05,
      "inclination_deg": 97.2778,
      "raan_deg": 153.263,
      "arg_perigee_deg": 201.8039,
      "mean_anomaly_deg": 158.3203,
      "mean_motion_rev_day": 15.94905941
    }
  ]
}